#dP2019  6  7  0  0  0.00000000      96 __u+U ITR00 FIT  IAC
## 2056 432000.00000000   900.00000000 58641 0.0000000000000
+   92   C01C02C03C05C06C07C08C09C10C11C12C13C14C16E01E02E03
+        E04E05E07E08E09E11E12E13E14E15E18E19E21E24E25E26E27
+        E30E31E33E36G01G02G03G04G05G06G07G08G09G10G11G12G13
+        G14G15G16G17G18G19G20G21G22G23G24G25G26G27G28G29G31
+        G32R01R02R03R04R05R07R08R09R10R11R13R14R15R16R17R18
+        R19R20R21R22R23R24R26  0  0  0  0  0  0  0  0  0  0
++        13 12  0 13  9  8  8  8  8  8  8  9  8  8  5  5  6
++         5  5  6  6  5  5  5  6  5  5  5  5  5  5  5  5  5
++         5  5  5  5  4  4  4  4  3  4  4  4  3  4  4  4  4
++         4  4  4  4  4  4  4  3  4  4  4  4  4  4  4  3  4
++         4  6  6  6  6  5  5  5  5  5  5  6  5  5  6  5  5
++         6  6  5  5  5  6  8  0  0  0  0  0  0  0  0  0  0
%c M  cc GPS ccc cccc cccc cccc cccc ccccc ccccc ccccc ccccc
%c cc cc ccc ccc cccc cccc cccc cccc ccccc ccccc ccccc ccccc
%f  0.0000000  0.000000000  0.00000000000  0.000000000000000
%f  0.0000000  0.000000000  0.00000000000  0.000000000000000
%i    0    0    0    0      0      0      0      0         0
%i    0    0    0    0      0      0      0      0         0
/*                                                          
/*   RSA / INFORMATION & ANALYSIS CENTER (IAC) OF MCC       
/*   ULTRA-RAPID DETERMINATION                              
/* PCV:IGS14_2045 OL/AL:FES2004  NONE     YN ORB:CoN CLK:CoN
*  2019 06 07 19 15  0.00000000
PC01 -32311.499264  27097.649298   -559.080993    684.052515
PC02   4404.889947  41920.954939   -141.546166    110.959667
PC03      0.000000      0.000000      0.000000 999999.999999
PC05  22018.346039  35979.028306     -7.107797   -225.131302
PC06 -19634.314491  21548.258915  30679.708493    918.851150
PC07 -20730.109916  37005.498312   1032.974740    156.852706
PC08  -5069.291687  28656.848817 -30326.775165    163.771205
PC09   -632.629560  24675.965288  34418.857707    824.244693
PC10  -8578.910936  39130.403334 -13670.485900   -823.302520
PC11  25936.338813   6787.939859   7690.554855    289.444304
PC12  11731.646443  18203.478043 -17496.340531    742.487256
PC13   6287.856821  36676.759831 -19520.854326   -762.527033
PC14  17538.024064   5614.791175  21048.580017    575.673571
PC16 -16002.894778  22164.977339  32090.158642   -917.175146
PE01 -11843.065994  26696.507061   4840.384926   -621.351416
PE02  11818.272463 -26713.351716  -4798.277866     63.782927
PE03  16298.776458 -16759.564110 -18138.471716   -174.808336
PE04   5400.197369  16358.197372  24083.453990   -298.096210
PE05  28634.087963  -7339.028400  -1508.677171   -477.096454
PE07 -24164.462253  -6300.708189 -15886.208287   -202.823459
PE08  -5632.876106 -16128.404419 -24162.533932   6343.497470
PE09  24185.349089   6026.632039  15967.012841   6415.769632
PE11  22924.324049  17038.977859   7806.713271   5681.474029
PE12  12336.601898  24390.675219 -11390.217278   6357.797843
PE13 -22950.806145 -17026.956799  -7692.333727    388.192851
PE14    239.470820  20952.878888 -25001.422237   -596.662111
PE15 -12738.755688 -24292.107459  11119.938372    907.654313
PE18  -3513.895302 -15306.767826  17339.231002   -693.410160
PE19 -18109.727857  16182.826533  16931.942107     -5.924483
PE21 -17881.595881  11377.542980  20661.844957   -537.905750
PE24  13526.089215  10360.061068 -24217.615842   6040.461827
PE25  17883.364665 -11292.727252 -20703.457091   1780.258761
PE26 -19837.619265    211.152445 -21965.962979   4479.678046
PE27 -13377.391315 -10619.222588  24174.234740    453.916898
PE30  -1073.703338 -26231.436886  13662.605680   4808.698806
PE31   1026.001793  26335.613499 -13482.496281   -465.429515
PE33  -4943.419849  17357.956265 -23459.728584   -470.000357
PE36  19748.904362   -232.648507  22053.457021    702.550268
PG01  16341.718281   3058.393220  20602.769923    -35.354084
PG02 -14595.991204 -21591.421009  -4908.722975   -231.925843
PG03  19681.706405  -7272.596615  16192.553129    186.270481
PG04  12541.419631 -12188.502333 -19975.758393    166.222339
PG05 -10134.805799 -12164.621744 -21424.753360      0.633132
PG06  -5560.141823 -25043.958155   6848.329697    184.301538
PG07  10753.518364 -12259.881104 -20607.714554    -39.878999
PG08  25853.060953   5431.376155  -3658.584812   -146.557103
PG09  18836.582197  -9485.147734 -16189.568089    396.205015
PG10  -9369.599427  23006.724386   9178.954951     23.186572
PG11  21530.391064   4362.181929  14221.010979   -589.689431
PG12 -19339.628483   4634.783766  17302.739894    235.279124
PG13 -20578.877226 -12949.422424 -10856.510723    -60.132713
PG14   7079.320345  16012.521433  20349.703584    -77.099916
PG15 -26444.905259  -3117.057558  -3052.614738   -308.439820
PG16   9009.501725  11975.075490 -22083.207748    -46.245811
PG17   2451.846865 -14691.320020  22398.923387     67.846082
PG18  17753.747489  12041.866487  15251.293306     60.009015
PG19  -5625.427398 -15397.278074  20577.406361   -309.429402
PG20 -14007.678459  22446.614745  -1067.617809    525.235583
PG21  -5649.595794  17884.587893 -18074.649860   -177.602685
PG22  17749.727946    169.573896  19970.447132   -713.485683
PG23  26167.232149  -1023.127680  -5231.021104   -182.802533
PG24 -17961.373706  -5801.104851  18655.581480    -67.150516
PG25 -19182.321442  16330.267573   7786.902956   -763.677332
PG26   1128.140934  19853.199005 -17541.459694    221.214081
PG27  19159.106797  12044.702823 -14254.575931   -151.862050
PG28  11393.853120 -22212.569300   9809.652573    767.590274
PG29 -22240.889869   4945.616448 -13694.470514    182.185663
PG31   5882.922282  25138.927476   5126.951688     32.690080
PG32   -285.730642  15389.626634  21710.076332    -53.430088
PR01  -8438.955616  -8112.276153 -22656.720100     44.977524
PR02 -22575.563908   4663.592450 -10820.011576    372.399651
PR03 -20850.644075  13086.689184   6644.682073     -3.636122
PR04  -6503.228053  13762.010768  20486.847695    309.240766
PR05  10544.781345   6670.267296  22267.083774     29.600742
PR07  20695.943952 -13178.152370  -7003.124472    -21.386640
PR08   7335.322485 -13889.598823 -20042.115869     17.387270
PR09  11312.300492  -2085.889127 -22750.137027     73.862352
PR10   9326.004554 -17451.767272 -16066.913063     51.605126
PR11   1796.942756 -25387.952130   1248.740014    -68.685820
PR13 -10913.930358    110.024497  23036.178095    -24.623293
PR14  -9281.329150  17728.932879  15839.141196     39.723558
PR15  -2292.662556  25404.610473   -315.392481    102.408102
PR16   6593.491331  18205.680790 -16565.611967      8.769527
PR17 -11782.074878   4108.134950 -22248.322096    233.924830
PR18   3925.687362  14370.842155 -20713.892291     -4.082097
PR19  16967.943856  17258.345210  -8064.100491    -35.026776
PR20  20916.978279   9499.643881  11143.473426   -380.537025
PR21  11166.698033  -4553.756270  22470.394971    -52.626598
PR22  -6244.300730 -15298.878259  19382.856067    -22.870797
PR23 -19814.703642 -15826.579047   2715.556889    232.917156
PR24 -20652.412762  -7846.433235 -12762.457560   -181.308986
PR26  21485.514850  10724.324095   8579.633682     -7.759730
EOF
